ISS OBJECT XW           
1 66910U 98067XW  26118.34961947  .00400341  71461-4  12513-2 0  9992
2 66910  51.6161 168.8849 0011478   6.0337 354.0805 15.90840434 23028
ISS OBJECT XY           
1 66912U 98067XY  26119.14679143  .00138692  00000+0  89684-3 0  9994
2 66912  51.6233 169.7978 0008267   6.5641 353.5465 15.75090634 23071
KNACKSAT-2              
1 67683U 98067XZ  26118.44026888  .00037603  00000+0  53648-3 0  9995
2 67683  51.6295 183.8755 0012529  13.5417 346.5908 15.55824780 12527
CORAL                   
1 67684U 98067YA  26118.89859867  .00098437  00000+0  10391-2 0  9995
2 67684  51.6269 179.4307 0016473   9.3307 350.7990 15.63255773 12624
GXIBA-1                 
1 67685U 98067YB  26118.86574126  .00041927  00000+0  57710-3 0  9994
2 67685  51.6295 181.4670 0014474  12.1984 347.9355 15.56711626 12597
UITMSAT-2               
1 67686U 98067YC  26118.43984711  .00054499  00000+0  70366-3 0  9993
2 67686  51.6294 183.1258 0011480 352.6634   7.4189 15.58351991 12530
HMU-SAT2                
1 67687U 98067YD  26119.19776875  .00037059  00000+0  51845-3 0  9992
2 67687  51.6301 179.9382 0010590 356.8819   3.2105 15.56388209 12568
LEOPARD                 
1 67688U 98067YE  26119.16410846  .00045154  00000+0  60021-3 0  9994
2 67688  51.6295 179.7151 0011266 355.8750   4.2147 15.57661959 12561
CREW DRAGON 12          
1 67796U 26031A   26119.16770407  .00006851  00000+0  13230-3 0  9999
2 67796  51.6320 182.7324 0007095   3.0267 357.0763 15.49015163564326
PROGRESS-MS 33          
1 68319U 26058A   26119.16770407  .00006851  00000+0  13230-3 0  9990
2 68319  51.6320 182.7324 0007095   3.0267 357.0763 15.49015163  5193
CYGNUS NG-24            
1 68689U 26079A   26119.16770407  .00006851  00000+0  13230-3 0  9993
2 68689  51.6320 182.7324 0007095   3.0267 357.0763 15.49015163  2808
PROGRESS-MS 34          
1 68837U 26093A   26119.16770407  .00006851  00000+0  13230-3 0  9994
2 68837  51.6320 182.7324 0007095   3.0267 357.0763 15.49015163   306
