[{"OBJECT_NAME":"ISS OBJECT XW","OBJECT_ID":"1998-067XW","EPOCH":"2026-04-28T08:23:27.122208","MEAN_MOTION":15.90840434,"ECCENTRICITY":0.00114787,"INCLINATION":51.6161,"RA_OF_ASC_NODE":168.8849,"ARG_OF_PERICENTER":6.0337,"MEAN_ANOMALY":354.0805,"EPHEMERIS_TYPE":0,"CLASSIFICATION_TYPE":"U","NORAD_CAT_ID":66910,"ELEMENT_SET_NO":999,"REV_AT_EPOCH":2302,"BSTAR":0.0012513041,"MEAN_MOTION_DOT":0.00400341,"MEAN_MOTION_DDOT":7.1460616e-5},{"OBJECT_NAME":"ISS OBJECT XY","OBJECT_ID":"1998-067XY","EPOCH":"2026-04-29T03:31:22.779552","MEAN_MOTION":15.75090634,"ECCENTRICITY":0.0008267,"INCLINATION":51.6233,"RA_OF_ASC_NODE":169.7978,"ARG_OF_PERICENTER":6.5641,"MEAN_ANOMALY":353.5465,"EPHEMERIS_TYPE":0,"CLASSIFICATION_TYPE":"U","NORAD_CAT_ID":66912,"ELEMENT_SET_NO":999,"REV_AT_EPOCH":2307,"BSTAR":0.00089683979,"MEAN_MOTION_DOT":0.00138692,"MEAN_MOTION_DDOT":0},{"OBJECT_NAME":"KNACKSAT-2","OBJECT_ID":"1998-067XZ","EPOCH":"2026-04-28T10:33:59.231232","MEAN_MOTION":15.5582478,"ECCENTRICITY":0.00125294,"INCLINATION":51.6295,"RA_OF_ASC_NODE":183.8755,"ARG_OF_PERICENTER":13.5417,"MEAN_ANOMALY":346.5908,"EPHEMERIS_TYPE":0,"CLASSIFICATION_TYPE":"U","NORAD_CAT_ID":67683,"ELEMENT_SET_NO":999,"REV_AT_EPOCH":1252,"BSTAR":0.00053647808,"MEAN_MOTION_DOT":0.00037603,"MEAN_MOTION_DDOT":0},{"OBJECT_NAME":"CORAL","OBJECT_ID":"1998-067YA","EPOCH":"2026-04-28T21:33:58.925088","MEAN_MOTION":15.63255773,"ECCENTRICITY":0.0016473,"INCLINATION":51.6269,"RA_OF_ASC_NODE":179.4307,"ARG_OF_PERICENTER":9.3307,"MEAN_ANOMALY":350.799,"EPHEMERIS_TYPE":0,"CLASSIFICATION_TYPE":"U","NORAD_CAT_ID":67684,"ELEMENT_SET_NO":999,"REV_AT_EPOCH":1262,"BSTAR":0.0010391,"MEAN_MOTION_DOT":0.00098437,"MEAN_MOTION_DDOT":0},{"OBJECT_NAME":"GXIBA-1","OBJECT_ID":"1998-067YB","EPOCH":"2026-04-28T20:46:40.044864","MEAN_MOTION":15.56711626,"ECCENTRICITY":0.00144748,"INCLINATION":51.6295,"RA_OF_ASC_NODE":181.467,"ARG_OF_PERICENTER":12.1984,"MEAN_ANOMALY":347.9355,"EPHEMERIS_TYPE":0,"CLASSIFICATION_TYPE":"U","NORAD_CAT_ID":67685,"ELEMENT_SET_NO":999,"REV_AT_EPOCH":1259,"BSTAR":0.00057709658,"MEAN_MOTION_DOT":0.00041927,"MEAN_MOTION_DDOT":0},{"OBJECT_NAME":"UITMSAT-2","OBJECT_ID":"1998-067YC","EPOCH":"2026-04-28T10:33:22.790304","MEAN_MOTION":15.58351991,"ECCENTRICITY":0.00114801,"INCLINATION":51.6294,"RA_OF_ASC_NODE":183.1258,"ARG_OF_PERICENTER":352.6634,"MEAN_ANOMALY":7.4189,"EPHEMERIS_TYPE":0,"CLASSIFICATION_TYPE":"U","NORAD_CAT_ID":67686,"ELEMENT_SET_NO":999,"REV_AT_EPOCH":1253,"BSTAR":0.00070366309,"MEAN_MOTION_DOT":0.00054499,"MEAN_MOTION_DDOT":0},{"OBJECT_NAME":"HMU-SAT2","OBJECT_ID":"1998-067YD","EPOCH":"2026-04-29T04:44:47.220000","MEAN_MOTION":15.56388209,"ECCENTRICITY":0.00105904,"INCLINATION":51.6301,"RA_OF_ASC_NODE":179.9382,"ARG_OF_PERICENTER":356.8819,"MEAN_ANOMALY":3.2105,"EPHEMERIS_TYPE":0,"CLASSIFICATION_TYPE":"U","NORAD_CAT_ID":67687,"ELEMENT_SET_NO":999,"REV_AT_EPOCH":1256,"BSTAR":0.0005184479,"MEAN_MOTION_DOT":0.00037059,"MEAN_MOTION_DDOT":0},{"OBJECT_NAME":"LEOPARD","OBJECT_ID":"1998-067YE","EPOCH":"2026-04-29T03:56:18.970944","MEAN_MOTION":15.57661959,"ECCENTRICITY":0.00112662,"INCLINATION":51.6295,"RA_OF_ASC_NODE":179.7151,"ARG_OF_PERICENTER":355.875,"MEAN_ANOMALY":4.2147,"EPHEMERIS_TYPE":0,"CLASSIFICATION_TYPE":"U","NORAD_CAT_ID":67688,"ELEMENT_SET_NO":999,"REV_AT_EPOCH":1256,"BSTAR":0.0006002097,"MEAN_MOTION_DOT":0.00045154,"MEAN_MOTION_DDOT":0},{"OBJECT_NAME":"CREW DRAGON 12","OBJECT_ID":"2026-031A","EPOCH":"2026-04-29T04:01:29.631648","MEAN_MOTION":15.49015163,"ECCENTRICITY":0.00070957,"INCLINATION":51.632,"RA_OF_ASC_NODE":182.7324,"ARG_OF_PERICENTER":3.0267,"MEAN_ANOMALY":357.0763,"EPHEMERIS_TYPE":0,"CLASSIFICATION_TYPE":"U","NORAD_CAT_ID":67796,"ELEMENT_SET_NO":999,"REV_AT_EPOCH":56432,"BSTAR":0.00013229681,"MEAN_MOTION_DOT":6.851e-5,"MEAN_MOTION_DDOT":0},{"OBJECT_NAME":"PROGRESS-MS 33","OBJECT_ID":"2026-058A","EPOCH":"2026-04-29T04:01:29.631648","MEAN_MOTION":15.49015163,"ECCENTRICITY":0.00070957,"INCLINATION":51.632,"RA_OF_ASC_NODE":182.7324,"ARG_OF_PERICENTER":3.0267,"MEAN_ANOMALY":357.0763,"EPHEMERIS_TYPE":0,"CLASSIFICATION_TYPE":"U","NORAD_CAT_ID":68319,"ELEMENT_SET_NO":999,"REV_AT_EPOCH":519,"BSTAR":0.00013229681,"MEAN_MOTION_DOT":6.851e-5,"MEAN_MOTION_DDOT":0},{"OBJECT_NAME":"CYGNUS NG-24","OBJECT_ID":"2026-079A","EPOCH":"2026-04-29T04:01:29.631648","MEAN_MOTION":15.49015163,"ECCENTRICITY":0.00070957,"INCLINATION":51.632,"RA_OF_ASC_NODE":182.7324,"ARG_OF_PERICENTER":3.0267,"MEAN_ANOMALY":357.0763,"EPHEMERIS_TYPE":0,"CLASSIFICATION_TYPE":"U","NORAD_CAT_ID":68689,"ELEMENT_SET_NO":999,"REV_AT_EPOCH":280,"BSTAR":0.00013229681,"MEAN_MOTION_DOT":6.851e-5,"MEAN_MOTION_DDOT":0},{"OBJECT_NAME":"PROGRESS-MS 34","OBJECT_ID":"2026-093A","EPOCH":"2026-04-29T04:01:29.631648","MEAN_MOTION":15.49015163,"ECCENTRICITY":0.00070957,"INCLINATION":51.632,"RA_OF_ASC_NODE":182.7324,"ARG_OF_PERICENTER":3.0267,"MEAN_ANOMALY":357.0763,"EPHEMERIS_TYPE":0,"CLASSIFICATION_TYPE":"U","NORAD_CAT_ID":68837,"ELEMENT_SET_NO":999,"REV_AT_EPOCH":30,"BSTAR":0.00013229681,"MEAN_MOTION_DOT":6.851e-5,"MEAN_MOTION_DDOT":0}]
